start=new Date('2022-11-30T00:00:00.000Z').valueOf();
sats=[{"CENTER_NAME":"EARTH","ELEMENT_SET_NO":"999","OBJECT_NAME":"STARLINK-1274","PERIOD":"95.592","EPHEMERIS_TYPE":"0","MEAN_ANOMALY":"279.4866","SEMIMAJOR_AXIS":"6925.335","CLASSIFICATION_TYPE":"U","OBJECT_TYPE":"PAYLOAD","BSTAR":"0.00007956700000","FILE":"3673849","NORAD_CAT_ID":"45387","TIME_SYSTEM":"UTC","ECCENTRICITY":"0.00012050","DECAY_DATE":null,"LAUNCH_DATE":"2020-03-18","MEAN_MOTION_DDOT":"0.0000000000000","INCLINATION":"53.0549","REF_FRAME":"TEME","RCS_SIZE":"LARGE","MEAN_MOTION_DOT":"0.00000904","MEAN_ELEMENT_THEORY":"SGP4","EPOCH":"2022-11-29T15:53:05.148096","OBJECT_ID":"2020-019AD","COUNTRY_CODE":"US","APOAPSIS":"548.035","MEAN_MOTION":"15.06404273","ARG_OF_PERICENTER":"80.6259","RA_OF_ASC_NODE":"115.7989","SITE":"AFETR","PERIAPSIS":"546.366","REV_AT_EPOCH":"14973","GP_ID":"219109300","TLE_LINE2":"2 45387  53.0549 115.7989 0001205  80.6259 279.4866 15.06404273149731","TLE_LINE1":"1 45387U 20019AD  22333.66186514  .00000904  00000-0  79567-4 0  9990"},{"LAUNCH_DATE":"2020-03-18","MEAN_MOTION_DDOT":"0.0000000000000","INCLINATION":"53.0559","RCS_SIZE":"LARGE","REF_FRAME":"TEME","OBJECT_ID":"2020-019AE","MEAN_ELEMENT_THEORY":"SGP4","MEAN_MOTION_DOT":"-0.00001235","EPOCH":"2022-11-29T19:54:37.170432","APOAPSIS":"548.476","COUNTRY_CODE":"US","RA_OF_ASC_NODE":"135.0496","MEAN_MOTION":"15.06398497","ARG_OF_PERICENTER":"64.2618","PERIAPSIS":"545.961","SITE":"AFETR","REV_AT_EPOCH":"14947","TLE_LINE1":"1 45388U 20019AE  22333.82959688 -.00001235  00000-0 -64031-4 0  9999","GP_ID":"219108049","TLE_LINE2":"2 45388  53.0559 135.0496 0001816  64.2618 295.8558 15.06398497149477","ELEMENT_SET_NO":"999","CENTER_NAME":"EARTH","PERIOD":"95.592","OBJECT_NAME":"STARLINK-1280","MEAN_ANOMALY":"295.8558","EPHEMERIS_TYPE":"0","SEMIMAJOR_AXIS":"6925.353","CLASSIFICATION_TYPE":"U","OBJECT_TYPE":"PAYLOAD","BSTAR":"-0.00006403100000","TIME_SYSTEM":"UTC","NORAD_CAT_ID":"45388","FILE":"3673849","DECAY_DATE":null,"ECCENTRICITY":"0.00018160"},{"NORAD_CAT_ID":"45389","FILE":"3673849","TIME_SYSTEM":"UTC","ECCENTRICITY":"0.00015520","DECAY_DATE":null,"CLASSIFICATION_TYPE":"U","BSTAR":"0.00009201700000","OBJECT_TYPE":"PAYLOAD","EPHEMERIS_TYPE":"0","MEAN_ANOMALY":"297.4542","SEMIMAJOR_AXIS":"6925.356","CENTER_NAME":"EARTH","ELEMENT_SET_NO":"999","OBJECT_NAME":"STARLINK-1283","PERIOD":"95.592","REV_AT_EPOCH":"14976","GP_ID":"219107800","TLE_LINE2":"2 45389  53.0529 115.1388 0001552  62.6605 297.4542 15.06397554149765","TLE_LINE1":"1 45389U 20019AF  22333.80930828  .00001089  00000-0  92017-4 0  9993","ARG_OF_PERICENTER":"62.6605","MEAN_MOTION":"15.06397554","RA_OF_ASC_NODE":"115.1388","SITE":"AFETR","PERIAPSIS":"546.146","MEAN_MOTION_DOT":"0.00001089","MEAN_ELEMENT_THEORY":"SGP4","EPOCH":"2022-11-29T19:25:24.235392","OBJECT_ID":"2020-019AF","COUNTRY_CODE":"US","APOAPSIS":"548.296","LAUNCH_DATE":"2020-03-18","INCLINATION":"53.0529","MEAN_MOTION_DDOT":"0.0000000000000","REF_FRAME":"TEME","RCS_SIZE":"LARGE"},{"TLE_LINE2":"2 45390  53.0559 115.2525 0001594  68.8510 291.2650 15.06409426149756","GP_ID":"219109051","TLE_LINE1":"1 45390U 20019AG  22333.78350328  .00000186  00000-0  31392-4 0  9999","REV_AT_EPOCH":"14975","SITE":"AFETR","PERIAPSIS":"546.081","MEAN_MOTION":"15.06409426","ARG_OF_PERICENTER":"68.8510","RA_OF_ASC_NODE":"115.2525","COUNTRY_CODE":"US","APOAPSIS":"548.289","EPOCH":"2022-11-29T18:48:14.683392","MEAN_ELEMENT_THEORY":"SGP4","MEAN_MOTION_DOT":"0.00000186","OBJECT_ID":"2020-019AG","REF_FRAME":"TEME","RCS_SIZE":"LARGE","INCLINATION":"53.0559","MEAN_MOTION_DDOT":"0.0000000000000","LAUNCH_DATE":"2020-03-18","ECCENTRICITY":"0.00015940","DECAY_DATE":null,"FILE":"3673849","NORAD_CAT_ID":"45390","TIME_SYSTEM":"UTC","BSTAR":"0.00003139200000","OBJECT_TYPE":"PAYLOAD","CLASSIFICATION_TYPE":"U","SEMIMAJOR_AXIS":"6925.320","EPHEMERIS_TYPE":"0","MEAN_ANOMALY":"291.2650","OBJECT_NAME":"STARLINK-1284","PERIOD":"95.592","CENTER_NAME":"EARTH","ELEMENT_SET_NO":"999"},{"SEMIMAJOR_AXIS":"6925.358","MEAN_ANOMALY":"263.5252","EPHEMERIS_TYPE":"0","OBJECT_NAME":"STARLINK-1289","PERIOD":"95.592","CENTER_NAME":"EARTH","ELEMENT_SET_NO":"999","ECCENTRICITY":"0.00015150","DECAY_DATE":null,"FILE":"3673849","NORAD_CAT_ID":"45391","TIME_SYSTEM":"UTC","OBJECT_TYPE":"PAYLOAD","BSTAR":"0.00004517700000","CLASSIFICATION_TYPE":"U","COUNTRY_CODE":"US","APOAPSIS":"548.272","MEAN_ELEMENT_THEORY":"SGP4","MEAN_MOTION_DOT":"0.00000391","EPOCH":"2022-11-29T15:57:03.104064","OBJECT_ID":"2020-019AH","REF_FRAME":"TEME","RCS_SIZE":"LARGE","LAUNCH_DATE":"2020-03-18","MEAN_MOTION_DDOT":"0.0000000000000","INCLINATION":"53.0553","GP_ID":"219108802","TLE_LINE2":"2 45391  53.0553 115.7858 0001515  96.5909 263.5252 15.06396822149461","TLE_LINE1":"1 45391U 20019AH  22333.66461926  .00000391  00000-0  45177-4 0  9998","REV_AT_EPOCH":"14946","SITE":"AFETR","PERIAPSIS":"546.174","ARG_OF_PERICENTER":"96.5909","MEAN_MOTION":"15.06396822","RA_OF_ASC_NODE":"115.7858"},{"PERIOD":"94.721","OBJECT_NAME":"STARLINK-1290","ELEMENT_SET_NO":"999","CENTER_NAME":"EARTH","SEMIMAJOR_AXIS":"6883.221","EPHEMERIS_TYPE":"0","MEAN_ANOMALY":"158.6711","OBJECT_TYPE":"PAYLOAD","BSTAR":"0.00028459000000","CLASSIFICATION_TYPE":"U","DECAY_DATE":null,"ECCENTRICITY":"0.00027210","TIME_SYSTEM":"UTC","NORAD_CAT_ID":"45392","FILE":"3673336","RCS_SIZE":"LARGE","REF_FRAME":"TEME","LAUNCH_DATE":"2020-03-18","MEAN_MOTION_DDOT":"0.0000000000000","INCLINATION":"53.0001","APOAPSIS":"506.959","COUNTRY_CODE":"US","OBJECT_ID":"2020-019AJ","MEAN_MOTION_DOT":"0.00005934","MEAN_ELEMENT_THEORY":"SGP4","EPOCH":"2022-11-29T08:51:28.864512","PERIAPSIS":"503.213","SITE":"AFETR","RA_OF_ASC_NODE":"93.3009","ARG_OF_PERICENTER":"201.4170","MEAN_MOTION":"15.20250717","TLE_LINE1":"1 45392U 20019AJ  22333.36908408  .00005934  00000-0  28459-3 0  9998","GP_ID":"219070431","TLE_LINE2":"2 45392  53.0001  93.3009 0002721 201.4170 158.6711 15.20250717149693","REV_AT_EPOCH":"14969"},{"ELEMENT_SET_NO":"999","CENTER_NAME":"EARTH","PERIOD":"95.592","OBJECT_NAME":"STARLINK-1291","EPHEMERIS_TYPE":"0","MEAN_ANOMALY":"292.8098","SEMIMAJOR_AXIS":"6925.352","CLASSIFICATION_TYPE":"U","OBJECT_TYPE":"PAYLOAD","BSTAR":"-0.00005388100000","TIME_SYSTEM":"UTC","FILE":"3673849","NORAD_CAT_ID":"45393","DECAY_DATE":null,"ECCENTRICITY":"0.00014010","LAUNCH_DATE":"2020-03-18","MEAN_MOTION_DDOT":"0.0000000000000","INCLINATION":"53.0547","RCS_SIZE":"LARGE","REF_FRAME":"TEME","OBJECT_ID":"2020-019AK","MEAN_ELEMENT_THEORY":"SGP4","MEAN_MOTION_DOT":"-0.00001084","EPOCH":"2022-11-29T13:29:47.752800","APOAPSIS":"548.187","COUNTRY_CODE":"US","RA_OF_ASC_NODE":"116.2458","MEAN_MOTION":"15.06398977","ARG_OF_PERICENTER":"67.3039","PERIAPSIS":"546.246","SITE":"AFETR","REV_AT_EPOCH":"14948","TLE_LINE1":"1 45393U 20019AK  22333.56235825 -.00001084  00000-0 -53881-4 0  9999","GP_ID":"219108300","TLE_LINE2":"2 45393  53.0547 116.2458 0001401  67.3039 292.8098 15.06398977149480"},{"REV_AT_EPOCH":"14949","TLE_LINE2":"2 45394  53.0538 115.2253 0001342  79.6603 280.4537 15.06404406149497","GP_ID":"219108552","TLE_LINE1":"1 45394U 20019AL  22333.79087992  .00000873  00000-0  77462-4 0  9999","ARG_OF_PERICENTER":"79.6603","MEAN_MOTION":"15.06404406","RA_OF_ASC_NODE":"115.2253","SITE":"AFETR","PERIAPSIS":"546.271","EPOCH":"2022-11-29T18:58:52.025088","MEAN_ELEMENT_THEORY":"SGP4","MEAN_MOTION_DOT":"0.00000873","OBJECT_ID":"2020-019AL","COUNTRY_CODE":"US","APOAPSIS":"548.129","INCLINATION":"53.0538","MEAN_MOTION_DDOT":"0.0000000000000","LAUNCH_DATE":"2020-03-18","REF_FRAME":"TEME","RCS_SIZE":"LARGE","NORAD_CAT_ID":"45394","FILE":"3673849","TIME_SYSTEM":"UTC","ECCENTRICITY":"0.00013420","DECAY_DATE":null,"CLASSIFICATION_TYPE":"U","OBJECT_TYPE":"PAYLOAD","BSTAR":"0.00007746200000","MEAN_ANOMALY":"280.4537","EPHEMERIS_TYPE":"0","SEMIMAJOR_AXIS":"6925.335","CENTER_NAME":"EARTH","ELEMENT_SET_NO":"999","OBJECT_NAME":"STARLINK-1292","PERIOD":"95.592"},{"LAUNCH_DATE":"2020-03-18","MEAN_MOTION_DDOT":"0.0000000000000","INCLINATION":"53.0564","RCS_SIZE":"LARGE","REF_FRAME":"TEME","OBJECT_ID":"2020-019AM","MEAN_MOTION_DOT":"-0.00010494","MEAN_ELEMENT_THEORY":"SGP4","EPOCH":"2022-11-29T19:41:18.872448","APOAPSIS":"548.501","COUNTRY_CODE":"US","RA_OF_ASC_NODE":"115.0854","MEAN_MOTION":"15.06405122","ARG_OF_PERICENTER":"39.4481","PERIAPSIS":"545.895","SITE":"AFETR","REV_AT_EPOCH":"14894","TLE_LINE1":"1 45395U 20019AM  22333.82035732 -.00010494  00000-0 -68648-3 0  9996","GP_ID":"219109301","TLE_LINE2":"2 45395  53.0564 115.0854 0001881  39.4481 320.6645 15.06405122148940","ELEMENT_SET_NO":"999","CENTER_NAME":"EARTH","PERIOD":"95.592","OBJECT_NAME":"STARLINK-1297","EPHEMERIS_TYPE":"0","MEAN_ANOMALY":"320.6645","SEMIMAJOR_AXIS":"6925.333","CLASSIFICATION_TYPE":"U","BSTAR":"-0.00068648000000","OBJECT_TYPE":"PAYLOAD","TIME_SYSTEM":"UTC","NORAD_CAT_ID":"45395","FILE":"3673849","DECAY_DATE":null,"ECCENTRICITY":"0.00018810"},{"SITE":"AFETR","PERIAPSIS":"546.277","ARG_OF_PERICENTER":"67.1988","MEAN_MOTION":"15.06396658","RA_OF_ASC_NODE":"115.7594","TLE_LINE2":"2 45396  53.0551 115.7594 0001367  67.1988 292.9145 15.06396658149450","GP_ID":"219108050","TLE_LINE1":"1 45396U 20019AN  22333.66924040  .00000866  00000-0  77022-4 0  9995","REV_AT_EPOCH":"14945","REF_FRAME":"TEME","RCS_SIZE":"LARGE","MEAN_MOTION_DDOT":"0.0000000000000","INCLINATION":"53.0551","LAUNCH_DATE":"2020-03-18","COUNTRY_CODE":"US","APOAPSIS":"548.170","EPOCH":"2022-11-29T16:03:42.370560","MEAN_MOTION_DOT":"0.00000866","MEAN_ELEMENT_THEORY":"SGP4","OBJECT_ID":"2020-019AN","BSTAR":"0.00007702200000","OBJECT_TYPE":"PAYLOAD","CLASSIFICATION_TYPE":"U","ECCENTRICITY":"0.00013670","DECAY_DATE":null,"FILE":"3673849","NORAD_CAT_ID":"45396","TIME_SYSTEM":"UTC","OBJECT_NAME":"STARLINK-1303","PERIOD":"95.592","CENTER_NAME":"EARTH","ELEMENT_SET_NO":"999","SEMIMAJOR_AXIS":"6925.359","EPHEMERIS_TYPE":"0","MEAN_ANOMALY":"292.9145"}];
